TISAT 1                 
1 36799U 10035E   26068.75703561  .00024554  00000+0  91005-3 0  9996
2 36799  98.0645   6.8512 0001343 159.3030 200.8262 15.27628633852505
STARLINK-33676          
1 63403U 25065E   26068.50647396  .00021686  00000+0  79494-3 0  9994
2 63403  43.0032 107.9671 0001888 272.2095  87.8541 15.27592571 52816
